STARLINK-11330 [DTC]    
1 62011U 24213D   25238.42560984  .00242706  00000+0  19437-2 0  9996
2 62011  53.1568 284.0708 0001281  98.9983 261.1180 15.69790131 44242
STARLINK-11363 [DTC]    
1 62012U 24213E   25239.10144616  .00230981  00000+0  18528-2 0  9995
2 62012  53.1560 280.4563 0002484  89.0323 271.0979 15.69787212 44353
STARLINK-11377 [DTC]    
1 62013U 24213F   25238.84186559  .00283998  00000+0  22616-2 0  9997
2 62013  53.1566 281.6843 0001513  76.8434 283.2753 15.69795583 44314
STARLINK-11385 [DTC]    
1 62014U 24213G   25239.12106774  .00212885  00000+0  17099-2 0  9997
2 62014  53.1580 280.5884 0000652  70.7898 289.3191 15.69813670 44359
STARLINK-11396 [DTC]    
1 62015U 24213H   25239.15039723  .00308205  00000+0  24474-2 0  9997
2 62015  53.1568 280.0416 0001076 111.1356 248.9777 15.69789440 44361
STARLINK-11393 [DTC]    
1 62016U 24213J   25239.14549172  .00312164  00000+0  24763-2 0  9991
2 62016  53.1571 280.0122 0001462 106.5737 253.5442 15.69802581 44363
STARLINK-11343 [DTC]    
1 62017U 24213K   25239.11616253  .00303648  00000+0  24055-2 0  9995
2 62017  53.1572 280.5554 0001574 119.8505 240.2670 15.69861357 44354
STARLINK-11411 [DTC]    
1 62018U 24213L   25239.10635120  .00274272  00000+0  21882-2 0  9994
2 62018  53.1567 280.4910 0001815  98.2532 261.8691 15.69781377 44357
STARLINK-11404 [DTC]    
1 62019U 24213M   25239.13578388  .00253869  00000+0  20254-2 0  9991
2 62019  53.1573 280.6839 0001159  99.3852 260.7297 15.69845648 44357
STARLINK-11378 [DTC]    
1 62020U 24213N   25238.82223971  .00177635  00000+0  14374-2 0  9995
2 62020  53.1570 281.5480 0001031  81.3155 278.7980 15.69751177 44311
STARLINK-32520          
1 62021U 24213P   25238.55055417  .00016285  00000+0  56075-3 0  9992
2 62021  53.1603 354.8462 0001189  78.4809 281.6325 15.30201070 43270
STARLINK-32539          
1 62022U 24213Q   25239.01985552  .00017231  00000+0  59325-3 0  9990
2 62022  53.1619 339.8337 0001301  95.4589 264.6561 15.30160350 43528
STARLINK-32334          
1 62023U 24213R   25239.01713927  .00017815  00000+0  61195-3 0  9992
2 62023  53.1603 352.0703 0001291  87.4288 272.6861 15.30211375 43358
STARLINK-32504          
1 62024U 24213S   25238.64213800  .00027187  00000+0  92677-3 0  9998
2 62024  53.1619 353.9998 0001278  86.2171 273.8976 15.30196962 43292
STARLINK-32493          
1 62025U 24213T   25238.60953662  .00026931  00000+0  91827-3 0  9994
2 62025  53.1607 354.5046 0001254  85.6073 274.5071 15.30193944 43289
STARLINK-32561          
1 62026U 24213U   25239.04035905  .00024281  00000+0  82912-3 0  9996
2 62026  53.1607 352.2182 0001360  81.0012 279.1143 15.30205650 43354
