[{"OBJECT_NAME":"STARLINK-11330 [DTC]","OBJECT_ID":"2024-213D","EPOCH":"2025-08-26T10:12:52.690176","MEAN_MOTION":15.69790131,"ECCENTRICITY":0.00012819,"INCLINATION":53.1568,"RA_OF_ASC_NODE":284.0708,"ARG_OF_PERICENTER":98.9983,"MEAN_ANOMALY":261.118,"EPHEMERIS_TYPE":0,"CLASSIFICATION_TYPE":"U","NORAD_CAT_ID":62011,"ELEMENT_SET_NO":999,"REV_AT_EPOCH":4424,"BSTAR":0.0019436648,"MEAN_MOTION_DOT":0.00242706,"MEAN_MOTION_DDOT":0},{"OBJECT_NAME":"STARLINK-11363 [DTC]","OBJECT_ID":"2024-213E","EPOCH":"2025-08-27T02:26:04.948224","MEAN_MOTION":15.69787212,"ECCENTRICITY":0.00024845,"INCLINATION":53.156,"RA_OF_ASC_NODE":280.4563,"ARG_OF_PERICENTER":89.0323,"MEAN_ANOMALY":271.0979,"EPHEMERIS_TYPE":0,"CLASSIFICATION_TYPE":"U","NORAD_CAT_ID":62012,"ELEMENT_SET_NO":999,"REV_AT_EPOCH":4435,"BSTAR":0.0018527952,"MEAN_MOTION_DOT":0.00230981,"MEAN_MOTION_DDOT":0},{"OBJECT_NAME":"STARLINK-11377 [DTC]","OBJECT_ID":"2024-213F","EPOCH":"2025-08-26T20:12:17.186976","MEAN_MOTION":15.69795583,"ECCENTRICITY":0.00015134,"INCLINATION":53.1566,"RA_OF_ASC_NODE":281.6843,"ARG_OF_PERICENTER":76.8434,"MEAN_ANOMALY":283.2753,"EPHEMERIS_TYPE":0,"CLASSIFICATION_TYPE":"U","NORAD_CAT_ID":62013,"ELEMENT_SET_NO":999,"REV_AT_EPOCH":4431,"BSTAR":0.0022616444,"MEAN_MOTION_DOT":0.00283998,"MEAN_MOTION_DDOT":0},{"OBJECT_NAME":"STARLINK-11385 [DTC]","OBJECT_ID":"2024-213G","EPOCH":"2025-08-27T02:54:20.252736","MEAN_MOTION":15.6981367,"ECCENTRICITY":6.524e-5,"INCLINATION":53.158,"RA_OF_ASC_NODE":280.5884,"ARG_OF_PERICENTER":70.7898,"MEAN_ANOMALY":289.3191,"EPHEMERIS_TYPE":0,"CLASSIFICATION_TYPE":"U","NORAD_CAT_ID":62014,"ELEMENT_SET_NO":999,"REV_AT_EPOCH":4435,"BSTAR":0.0017099286,"MEAN_MOTION_DOT":0.00212885,"MEAN_MOTION_DDOT":0},{"OBJECT_NAME":"STARLINK-11396 [DTC]","OBJECT_ID":"2024-213H","EPOCH":"2025-08-27T03:36:34.320672","MEAN_MOTION":15.6978944,"ECCENTRICITY":0.00010766,"INCLINATION":53.1568,"RA_OF_ASC_NODE":280.0416,"ARG_OF_PERICENTER":111.1356,"MEAN_ANOMALY":248.9777,"EPHEMERIS_TYPE":0,"CLASSIFICATION_TYPE":"U","NORAD_CAT_ID":62015,"ELEMENT_SET_NO":999,"REV_AT_EPOCH":4436,"BSTAR":0.0024473803,"MEAN_MOTION_DOT":0.00308205,"MEAN_MOTION_DDOT":0},{"OBJECT_NAME":"STARLINK-11393 [DTC]","OBJECT_ID":"2024-213J","EPOCH":"2025-08-27T03:29:30.484608","MEAN_MOTION":15.69802581,"ECCENTRICITY":0.00014629,"INCLINATION":53.1571,"RA_OF_ASC_NODE":280.0122,"ARG_OF_PERICENTER":106.5737,"MEAN_ANOMALY":253.5442,"EPHEMERIS_TYPE":0,"CLASSIFICATION_TYPE":"U","NORAD_CAT_ID":62016,"ELEMENT_SET_NO":999,"REV_AT_EPOCH":4436,"BSTAR":0.0024762514,"MEAN_MOTION_DOT":0.00312164,"MEAN_MOTION_DDOT":0},{"OBJECT_NAME":"STARLINK-11343 [DTC]","OBJECT_ID":"2024-213K","EPOCH":"2025-08-27T02:47:16.442592","MEAN_MOTION":15.69861357,"ECCENTRICITY":0.00015742,"INCLINATION":53.1572,"RA_OF_ASC_NODE":280.5554,"ARG_OF_PERICENTER":119.8505,"MEAN_ANOMALY":240.267,"EPHEMERIS_TYPE":0,"CLASSIFICATION_TYPE":"U","NORAD_CAT_ID":62017,"ELEMENT_SET_NO":999,"REV_AT_EPOCH":4435,"BSTAR":0.0024054725,"MEAN_MOTION_DOT":0.00303648,"MEAN_MOTION_DDOT":0},{"OBJECT_NAME":"STARLINK-11411 [DTC]","OBJECT_ID":"2024-213L","EPOCH":"2025-08-27T02:33:08.743680","MEAN_MOTION":15.69781377,"ECCENTRICITY":0.00018156,"INCLINATION":53.1567,"RA_OF_ASC_NODE":280.491,"ARG_OF_PERICENTER":98.2532,"MEAN_ANOMALY":261.8691,"EPHEMERIS_TYPE":0,"CLASSIFICATION_TYPE":"U","NORAD_CAT_ID":62018,"ELEMENT_SET_NO":999,"REV_AT_EPOCH":4435,"BSTAR":0.0021882259,"MEAN_MOTION_DOT":0.00274272,"MEAN_MOTION_DDOT":0},{"OBJECT_NAME":"STARLINK-11404 [DTC]","OBJECT_ID":"2024-213M","EPOCH":"2025-08-27T03:15:31.727232","MEAN_MOTION":15.69845648,"ECCENTRICITY":0.00011597,"INCLINATION":53.1573,"RA_OF_ASC_NODE":280.6839,"ARG_OF_PERICENTER":99.3852,"MEAN_ANOMALY":260.7297,"EPHEMERIS_TYPE":0,"CLASSIFICATION_TYPE":"U","NORAD_CAT_ID":62019,"ELEMENT_SET_NO":999,"REV_AT_EPOCH":4435,"BSTAR":0.0020254211,"MEAN_MOTION_DOT":0.00253869,"MEAN_MOTION_DDOT":0},{"OBJECT_NAME":"STARLINK-11378 [DTC]","OBJECT_ID":"2024-213N","EPOCH":"2025-08-26T19:44:01.510944","MEAN_MOTION":15.69751177,"ECCENTRICITY":0.00010317,"INCLINATION":53.157,"RA_OF_ASC_NODE":281.548,"ARG_OF_PERICENTER":81.3155,"MEAN_ANOMALY":278.798,"EPHEMERIS_TYPE":0,"CLASSIFICATION_TYPE":"U","NORAD_CAT_ID":62020,"ELEMENT_SET_NO":999,"REV_AT_EPOCH":4431,"BSTAR":0.0014374335,"MEAN_MOTION_DOT":0.00177635,"MEAN_MOTION_DDOT":0},{"OBJECT_NAME":"STARLINK-32520","OBJECT_ID":"2024-213P","EPOCH":"2025-08-26T13:12:47.880288","MEAN_MOTION":15.3020107,"ECCENTRICITY":0.00011895,"INCLINATION":53.1603,"RA_OF_ASC_NODE":354.8462,"ARG_OF_PERICENTER":78.4809,"MEAN_ANOMALY":281.6325,"EPHEMERIS_TYPE":0,"CLASSIFICATION_TYPE":"U","NORAD_CAT_ID":62021,"ELEMENT_SET_NO":999,"REV_AT_EPOCH":4327,"BSTAR":0.0005607453,"MEAN_MOTION_DOT":0.00016285,"MEAN_MOTION_DDOT":0},{"OBJECT_NAME":"STARLINK-32539","OBJECT_ID":"2024-213Q","EPOCH":"2025-08-27T00:28:35.516928","MEAN_MOTION":15.3016035,"ECCENTRICITY":0.00013012,"INCLINATION":53.1619,"RA_OF_ASC_NODE":339.8337,"ARG_OF_PERICENTER":95.4589,"MEAN_ANOMALY":264.6561,"EPHEMERIS_TYPE":0,"CLASSIFICATION_TYPE":"U","NORAD_CAT_ID":62022,"ELEMENT_SET_NO":999,"REV_AT_EPOCH":4352,"BSTAR":0.00059325177,"MEAN_MOTION_DOT":0.00017231,"MEAN_MOTION_DDOT":0},{"OBJECT_NAME":"STARLINK-32334","OBJECT_ID":"2024-213R","EPOCH":"2025-08-27T00:24:40.832928","MEAN_MOTION":15.30211375,"ECCENTRICITY":0.00012915,"INCLINATION":53.1603,"RA_OF_ASC_NODE":352.0703,"ARG_OF_PERICENTER":87.4288,"MEAN_ANOMALY":272.6861,"EPHEMERIS_TYPE":0,"CLASSIFICATION_TYPE":"U","NORAD_CAT_ID":62023,"ELEMENT_SET_NO":999,"REV_AT_EPOCH":4335,"BSTAR":0.00061194901,"MEAN_MOTION_DOT":0.00017815,"MEAN_MOTION_DDOT":0},{"OBJECT_NAME":"STARLINK-32504","OBJECT_ID":"2024-213S","EPOCH":"2025-08-26T15:24:40.723200","MEAN_MOTION":15.30196962,"ECCENTRICITY":0.00012787,"INCLINATION":53.1619,"RA_OF_ASC_NODE":353.9998,"ARG_OF_PERICENTER":86.2171,"MEAN_ANOMALY":273.8976,"EPHEMERIS_TYPE":0,"CLASSIFICATION_TYPE":"U","NORAD_CAT_ID":62024,"ELEMENT_SET_NO":999,"REV_AT_EPOCH":4329,"BSTAR":0.00092676959,"MEAN_MOTION_DOT":0.00027187,"MEAN_MOTION_DDOT":0},{"OBJECT_NAME":"STARLINK-32493","OBJECT_ID":"2024-213T","EPOCH":"2025-08-26T14:37:43.963968","MEAN_MOTION":15.30193944,"ECCENTRICITY":0.00012541,"INCLINATION":53.1607,"RA_OF_ASC_NODE":354.5046,"ARG_OF_PERICENTER":85.6073,"MEAN_ANOMALY":274.5071,"EPHEMERIS_TYPE":0,"CLASSIFICATION_TYPE":"U","NORAD_CAT_ID":62025,"ELEMENT_SET_NO":999,"REV_AT_EPOCH":4328,"BSTAR":0.00091827194,"MEAN_MOTION_DOT":0.00026931,"MEAN_MOTION_DDOT":0},{"OBJECT_NAME":"STARLINK-32561","OBJECT_ID":"2024-213U","EPOCH":"2025-08-27T00:58:07.021920","MEAN_MOTION":15.3020565,"ECCENTRICITY":0.00013603,"INCLINATION":53.1607,"RA_OF_ASC_NODE":352.2182,"ARG_OF_PERICENTER":81.0012,"MEAN_ANOMALY":279.1143,"EPHEMERIS_TYPE":0,"CLASSIFICATION_TYPE":"U","NORAD_CAT_ID":62026,"ELEMENT_SET_NO":999,"REV_AT_EPOCH":4335,"BSTAR":0.00082911551,"MEAN_MOTION_DOT":0.00024281,"MEAN_MOTION_DDOT":0}]
